{"type": "FeatureCollection", "features": [ {"type": "Feature", "properties": {"norad_id": 66996, "name": "2025-292D", "group": "last-30-days", "lat": -67.7242992543594, "lon": 82.65701975489901, "alt_km": 552.1391493509454, "timestamp": "2025-12-16T23:36:34.926203+00:00", "meta": {"OBJECT_NAME": "2025-292D", "OBJECT_ID": "2025-292D", "EPOCH": "2025-12-16T06:21:31.639392", "MEAN_MOTION": 15.04620982, "ECCENTRICITY": 0.00130234, "INCLINATION": 97.6529, "RA_OF_ASC_NODE": 62.7828, "ARG_OF_PERICENTER": 263.055, "MEAN_ANOMALY": 96.9195, "EPHEMERIS_TYPE": 0, "CLASSIFICATION_TYPE": "U", "NORAD_CAT_ID": 66996, "ELEMENT_SET_NO": 999, "REV_AT_EPOCH": 92, "BSTAR": 0.00021824146, "MEAN_MOTION_DOT": 3.008e-05, "MEAN_MOTION_DDOT": 0}, "tle": {"line1": "1 66996U 25292D   25350.26494953  .00003008  00000+0  21824-3 0  9993", "line2": "2 66996  97.6529  62.7828 0013023 263.0550  96.9195 15.04620982   926"}}, "geometry": {"type": "Point", "coordinates": [82.65701975489901, -67.7242992543594]}}, {"type": "Feature", "properties": {"norad_id": 66997, "name": "2025-292E", "group": "last-30-days", "lat": -65.89429483679992, "lon": 80.99062344808699, "alt_km": 551.7436822164809, "timestamp": "2025-12-16T23:36:34.926213+00:00", "meta": {"OBJECT_NAME": "2025-292E", "OBJECT_ID": "2025-292E", "EPOCH": "2025-12-16T06:21:03.950784", "MEAN_MOTION": 15.04703314, "ECCENTRICITY": 0.00133764, "INCLINATION": 97.6551, "RA_OF_ASC_NODE": 62.7846, "ARG_OF_PERICENTER": 263.9185, "MEAN_ANOMALY": 96.0517, "EPHEMERIS_TYPE": 0, "CLASSIFICATION_TYPE": "U", "NORAD_CAT_ID": 66997, "ELEMENT_SET_NO": 999, "REV_AT_EPOCH": 91, "BSTAR": 0.00023480214, "MEAN_MOTION_DOT": 3.249e-05, "MEAN_MOTION_DDOT": 0}, "tle": {"line1": "1 66997U 25292E   25350.26462906  .00003249  00000+0  23480-3 0  9994", "line2": "2 66997  97.6551  62.7846 0013376 263.9185  96.0517 15.04703314   915"}}, "geometry": {"type": "Point", "coordinates": [80.99062344808699, -65.89429483679992]}}, {"type": "Feature", "properties": {"norad_id": 66998, "name": "2025-292F", "group": "last-30-days", "lat": -62.30650203692035, "lon": 78.35207097322076, "alt_km": 550.8279214807808, "timestamp": "2025-12-16T23:36:34.926224+00:00", "meta": {"OBJECT_NAME": "2025-292F", "OBJECT_ID": "2025-292F", "EPOCH": "2025-12-16T06:20:10.370688", "MEAN_MOTION": 15.04864045, "ECCENTRICITY": 0.00144765, "INCLINATION": 97.6571, "RA_OF_ASC_NODE": 62.7866, "ARG_OF_PERICENTER": 264.7437, "MEAN_ANOMALY": 95.2137, "EPHEMERIS_TYPE": 0, "CLASSIFICATION_TYPE": "U", "NORAD_CAT_ID": 66998, "ELEMENT_SET_NO": 999, "REV_AT_EPOCH": 92, "BSTAR": 0.00029987153, "MEAN_MOTION_DOT": 4.187e-05, "MEAN_MOTION_DDOT": 0}, "tle": {"line1": "1 66998U 25292F   25350.26400892  .00004187  00000+0  29987-3 0  9991", "line2": "2 66998  97.6571  62.7866 0014476 264.7437  95.2137 15.04864045   920"}}, "geometry": {"type": "Point", "coordinates": [78.35207097322076, -62.30650203692035]}}, {"type": "Feature", "properties": {"norad_id": 66999, "name": "2025-292G", "group": "last-30-days", "lat": -60.82674573089022, "lon": 77.44795032664956, "alt_km": 550.8336068978124, "timestamp": "2025-12-16T23:36:34.926234+00:00", "meta": {"OBJECT_NAME": "2025-292G", "OBJECT_ID": "2025-292G", "EPOCH": "2025-12-16T07:55:33.113568", "MEAN_MOTION": 15.04928461, "ECCENTRICITY": 0.00139886, "INCLINATION": 97.658, "RA_OF_ASC_NODE": 62.8535, "ARG_OF_PERICENTER": 266.6332, "MEAN_ANOMALY": 93.3294, "EPHEMERIS_TYPE": 0, "CLASSIFICATION_TYPE": "U", "NORAD_CAT_ID": 66999, "ELEMENT_SET_NO": 999, "REV_AT_EPOCH": 93, "BSTAR": 0.00030387615, "MEAN_MOTION_DOT": 4.25e-05, "MEAN_MOTION_DDOT": 0}, "tle": {"line1": "1 66999U 25292G   25350.33024437  .00004250  00000+0  30388-3 0  9995", "line2": "2 66999  97.6580  62.8535 0013988 266.6332  93.3294 15.04928461   934"}}, "geometry": {"type": "Point", "coordinates": [77.44795032664956, -60.82674573089022]}}, {"type": "Feature", "properties": {"norad_id": 67000, "name": "2025-292H", "group": "last-30-days", "lat": -60.82983790255877, "lon": 77.45323122726744, "alt_km": 550.8705557949643, "timestamp": "2025-12-16T23:36:34.926245+00:00", "meta": {"OBJECT_NAME": "2025-292H", "OBJECT_ID": "2025-292H", "EPOCH": "2025-12-15T22:21:04.642272", "MEAN_MOTION": 15.04925329, "ECCENTRICITY": 0.0013999, "INCLINATION": 97.6593, "RA_OF_ASC_NODE": 62.4588, "ARG_OF_PERICENTER": 267.6261, "MEAN_ANOMALY": 92.3362, "EPHEMERIS_TYPE": 0, "CLASSIFICATION_TYPE": "U", "NORAD_CAT_ID": 67000, "ELEMENT_SET_NO": 999, "REV_AT_EPOCH": 74, "BSTAR": 0.00019079719, "MEAN_MOTION_DOT": 2.644e-05, "MEAN_MOTION_DDOT": 0}, "tle": {"line1": "1 67000U 25292H   25349.93130373  .00002644  00000+0  19080-3 0  9991", "line2": "2 67000  97.6593  62.4588 0013999 267.6261  92.3362 15.04925329   744"}}, "geometry": {"type": "Point", "coordinates": [77.45323122726744, -60.82983790255877]}}, {"type": "Feature", "properties": {"norad_id": 67001, "name": "2025-292J", "group": "last-30-days", "lat": -74.13091587472802, "lon": 91.74025754309127, "alt_km": 552.3758885068783, "timestamp": "2025-12-16T23:36:34.926269+00:00", "meta": {"OBJECT_NAME": "2025-292J", "OBJECT_ID": "2025-292J", "EPOCH": "2025-12-16T04:47:25.853856", "MEAN_MOTION": 15.04341502, "ECCENTRICITY": 0.00142105, "INCLINATION": 97.657, "RA_OF_ASC_NODE": 62.7179, "ARG_OF_PERICENTER": 255.7313, "MEAN_ANOMALY": 104.2335, "EPHEMERIS_TYPE": 0, "CLASSIFICATION_TYPE": "U", "NORAD_CAT_ID": 67001, "ELEMENT_SET_NO": 999, "REV_AT_EPOCH": 91, "BSTAR": 0.00031225309, "MEAN_MOTION_DOT": 4.301e-05, "MEAN_MOTION_DDOT": 0}, "tle": {"line1": "1 67001U 25292J   25350.19960479  .00004301  00000+0  31225-3 0  9997", "line2": "2 67001  97.6570  62.7179 0014210 255.7313 104.2335 15.04341502   919"}}, "geometry": {"type": "Point", "coordinates": [91.74025754309127, -74.13091587472802]}}, {"type": "Feature", "properties": {"norad_id": 67002, "name": "ZK-1A R/B", "group": "last-30-days", "lat": 77.35750431055475, "lon": 26.867038298388028, "alt_km": 387.91961205095595, "timestamp": "2025-12-16T23:36:34.926283+00:00", "meta": {"OBJECT_NAME": "ZK-1A R/B", "OBJECT_ID": "2025-292K", "EPOCH": "2025-12-16T04:45:12.555072", "MEAN_MOTION": 15.55714407, "ECCENTRICITY": 0.02161172, "INCLINATION": 97.7243, "RA_OF_ASC_NODE": 63.2557, "ARG_OF_PERICENTER": 353.2924, "MEAN_ANOMALY": 6.5446, "EPHEMERIS_TYPE": 0, "CLASSIFICATION_TYPE": "U", "NORAD_CAT_ID": 67002, "ELEMENT_SET_NO": 999, "REV_AT_EPOCH": 93, "BSTAR": 0.0007113707, "MEAN_MOTION_DOT": 0.00146166, "MEAN_MOTION_DDOT": 7.743933e-06}, "tle": {"line1": "1 67002U 25292K   25350.19806198  .00146166  77439-5  71137-3 0  9993", "line2": "2 67002  97.7243  63.2557 0216117 353.2924   6.5446 15.55714407   939"}}, "geometry": {"type": "Point", "coordinates": [26.867038298388028, 77.35750431055475]}}, {"type": "Feature", "properties": {"norad_id": 67059, "name": "HULIANWANG DIGUI 16A", "group": "last-30-days", "lat": 20.070661048392157, "lon": 12.179896513556283, "alt_km": 808.3516364042489, "timestamp": "2025-12-16T23:36:34.926294+00:00", "meta": {"OBJECT_NAME": "HULIANWANG DIGUI 16A", "OBJECT_ID": "2025-295A", "EPOCH": "2025-12-12T05:06:27.347328", "MEAN_MOTION": 14.25879966, "ECCENTRICITY": 0.00136284, "INCLINATION": 50.0035, "RA_OF_ASC_NODE": 14.4753, "ARG_OF_PERICENTER": 247.7813, "MEAN_ANOMALY": 112.1656, "EPHEMERIS_TYPE": 0, "CLASSIFICATION_TYPE": "U", "NORAD_CAT_ID": 67059, "ELEMENT_SET_NO": 999, "REV_AT_EPOCH": 4, "BSTAR": 3.434713e-06, "MEAN_MOTION_DOT": -1.52e-06, "MEAN_MOTION_DDOT": 0}, "tle": {"line1": "1 67059U 25295A   25346.21281652 -.00000152  00000+0  34347-5 0  9991", "line2": "2 67059  50.0035  14.4753 0013628 247.7813 112.1656 14.25879966    41"}}, "geometry": {"type": "Point", "coordinates": [12.179896513556283, 20.070661048392157]}}, {"type": "Feature", "properties": {"norad_id": 67060, "name": "HULIANWANG DIGUI 16B", "group": "last-30-days", "lat": 21.925515687940763, "lon": 14.065831174995239, "alt_km": 808.2827968191068, "timestamp": "2025-12-16T23:36:34.926307+00:00", "meta": {"OBJECT_NAME": "HULIANWANG DIGUI 16B", "OBJECT_ID": "2025-295B", "EPOCH": "2025-12-12T05:06:25.468992", "MEAN_MOTION": 14.26022254, "ECCENTRICITY": 0.0013423, "INCLINATION": 50.0012, "RA_OF_ASC_NODE": 14.4776, "ARG_OF_PERICENTER": 244.6732, "MEAN_ANOMALY": 115.2792, "EPHEMERIS_TYPE": 0, "CLASSIFICATION_TYPE": "U", "NORAD_CAT_ID": 67060, "ELEMENT_SET_NO": 999, "REV_AT_EPOCH": 4, "BSTAR": 4.398892e-06, "MEAN_MOTION_DOT": -1.5e-06, "MEAN_MOTION_DDOT": 0}, "tle": {"line1": "1 67060U 25295B   25346.21279478 -.00000150  00000+0  43989-5 0  9996", "line2": "2 67060  50.0012  14.4776 0013423 244.6732 115.2792 14.26022254    48"}}, "geometry": {"type": "Point", "coordinates": [14.065831174995239, 21.925515687940763]}}, {"type": "Feature", "properties": {"norad_id": 67062, "name": "HULIANWANG DIGUI 16D", "group": "last-30-days", "lat": 20.657812119902765, "lon": 12.766164223190689, "alt_km": 807.3485837054668, "timestamp": "2025-12-16T23:36:34.926317+00:00", "meta": {"OBJECT_NAME": "HULIANWANG DIGUI 16D", "OBJECT_ID": "2025-295D", "EPOCH": "2025-12-12T05:06:24.477120", "MEAN_MOTION": 14.25916921, "ECCENTRICITY": 0.00124974, "INCLINATION": 50.0052, "RA_OF_ASC_NODE": 14.4731, "ARG_OF_PERICENTER": 251.2247, "MEAN_ANOMALY": 108.7311, "EPHEMERIS_TYPE": 0, "CLASSIFICATION_TYPE": "U", "NORAD_CAT_ID": 67062, "ELEMENT_SET_NO": 999, "REV_AT_EPOCH": 4, "BSTAR": 3.753899e-06, "MEAN_MOTION_DOT": -1.51e-06, "MEAN_MOTION_DDOT": 0}, "tle": {"line1": "1 67062U 25295D   25346.21278330 -.00000151  00000+0  37539-5 0  9999", "line2": "2 67062  50.0052  14.4731 0012497 251.2247 108.7311 14.25916921    46"}}, "geometry": {"type": "Point", "coordinates": [12.766164223190689, 20.657812119902765]}}]}